[{"OBJECT_NAME":"STARLINK-6129","OBJECT_ID":"2023-090R","EPOCH":"2025-09-23T05:45:30.018528","MEAN_MOTION":15.02538013,"ECCENTRICITY":0.00011206,"INCLINATION":43.0022,"RA_OF_ASC_NODE":104.6091,"ARG_OF_PERICENTER":274.6757,"MEAN_ANOMALY":85.3958,"EPHEMERIS_TYPE":0,"CLASSIFICATION_TYPE":"U","NORAD_CAT_ID":57116,"ELEMENT_SET_NO":999,"REV_AT_EPOCH":12522,"BSTAR":8.0356212e-5,"MEAN_MOTION_DOT":8.82e-6,"MEAN_MOTION_DDOT":0},{"OBJECT_NAME":"STARLINK-6148","OBJECT_ID":"2023-090S","EPOCH":"2025-09-22T19:48:44.930592","MEAN_MOTION":15.02542255,"ECCENTRICITY":0.00011547,"INCLINATION":43.0018,"RA_OF_ASC_NODE":106.6564,"ARG_OF_PERICENTER":273.3071,"MEAN_ANOMALY":86.7639,"EPHEMERIS_TYPE":0,"CLASSIFICATION_TYPE":"U","NORAD_CAT_ID":57117,"ELEMENT_SET_NO":999,"REV_AT_EPOCH":12515,"BSTAR":4.1742059e-5,"MEAN_MOTION_DOT":3.6e-6,"MEAN_MOTION_DDOT":0},{"OBJECT_NAME":"STARLINK-6151","OBJECT_ID":"2023-090T","EPOCH":"2025-09-23T04:22:50.861568","MEAN_MOTION":15.41655441,"ECCENTRICITY":0.00046371,"INCLINATION":42.9933,"RA_OF_ASC_NODE":76.8852,"ARG_OF_PERICENTER":298.0385,"MEAN_ANOMALY":62.0003,"EPHEMERIS_TYPE":0,"CLASSIFICATION_TYPE":"U","NORAD_CAT_ID":57118,"ELEMENT_SET_NO":999,"REV_AT_EPOCH":12554,"BSTAR":0.0031847134,"MEAN_MOTION_DOT":0.00139595,"MEAN_MOTION_DDOT":0},{"OBJECT_NAME":"STARLINK-6150","OBJECT_ID":"2023-090U","EPOCH":"2025-09-22T06:56:32.337024","MEAN_MOTION":15.02535588,"ECCENTRICITY":0.00011796,"INCLINATION":43.0034,"RA_OF_ASC_NODE":109.511,"ARG_OF_PERICENTER":269.9074,"MEAN_ANOMALY":90.1633,"EPHEMERIS_TYPE":0,"CLASSIFICATION_TYPE":"U","NORAD_CAT_ID":57119,"ELEMENT_SET_NO":999,"REV_AT_EPOCH":12508,"BSTAR":2.1202493e-5,"MEAN_MOTION_DOT":8.3e-7,"MEAN_MOTION_DDOT":0},{"OBJECT_NAME":"STARLINK-6147","OBJECT_ID":"2023-090V","EPOCH":"2025-09-22T19:51:56.619360","MEAN_MOTION":15.02542587,"ECCENTRICITY":0.00010737,"INCLINATION":43.0027,"RA_OF_ASC_NODE":106.6713,"ARG_OF_PERICENTER":273.6818,"MEAN_ANOMALY":86.3902,"EPHEMERIS_TYPE":0,"CLASSIFICATION_TYPE":"U","NORAD_CAT_ID":57120,"ELEMENT_SET_NO":999,"REV_AT_EPOCH":12516,"BSTAR":4.4861137e-5,"MEAN_MOTION_DOT":4.03e-6,"MEAN_MOTION_DDOT":0},{"OBJECT_NAME":"STARLINK-6152","OBJECT_ID":"2023-090W","EPOCH":"2025-09-22T06:43:45.244992","MEAN_MOTION":15.02538889,"ECCENTRICITY":0.00011133,"INCLINATION":43.0011,"RA_OF_ASC_NODE":109.443,"ARG_OF_PERICENTER":263.7254,"MEAN_ANOMALY":96.3461,"EPHEMERIS_TYPE":0,"CLASSIFICATION_TYPE":"U","NORAD_CAT_ID":57121,"ELEMENT_SET_NO":999,"REV_AT_EPOCH":12489,"BSTAR":7.4215439e-5,"MEAN_MOTION_DOT":7.99e-6,"MEAN_MOTION_DDOT":0},{"OBJECT_NAME":"STARLINK-6149","OBJECT_ID":"2023-090X","EPOCH":"2025-09-22T13:14:39.171264","MEAN_MOTION":15.0253903,"ECCENTRICITY":0.00011831,"INCLINATION":43.0053,"RA_OF_ASC_NODE":108.0414,"ARG_OF_PERICENTER":271.5326,"MEAN_ANOMALY":88.5381,"EPHEMERIS_TYPE":0,"CLASSIFICATION_TYPE":"U","NORAD_CAT_ID":57122,"ELEMENT_SET_NO":999,"REV_AT_EPOCH":12512,"BSTAR":2.166634e-6,"MEAN_MOTION_DOT":-1.74e-6,"MEAN_MOTION_DDOT":0},{"OBJECT_NAME":"STARLINK-6154","OBJECT_ID":"2023-090Y","EPOCH":"2025-09-21T21:04:35.102784","MEAN_MOTION":15.02540133,"ECCENTRICITY":0.00013797,"INCLINATION":43.0032,"RA_OF_ASC_NODE":111.5867,"ARG_OF_PERICENTER":271.6273,"MEAN_ANOMALY":88.4411,"EPHEMERIS_TYPE":0,"CLASSIFICATION_TYPE":"U","NORAD_CAT_ID":57123,"ELEMENT_SET_NO":999,"REV_AT_EPOCH":12483,"BSTAR":0.00012039426,"MEAN_MOTION_DOT":1.423e-5,"MEAN_MOTION_DDOT":0},{"OBJECT_NAME":"STARLINK-6146","OBJECT_ID":"2023-090Z","EPOCH":"2025-09-22T06:48:32.826528","MEAN_MOTION":15.02536672,"ECCENTRICITY":0.00011476,"INCLINATION":43.0053,"RA_OF_ASC_NODE":109.4708,"ARG_OF_PERICENTER":272.9854,"MEAN_ANOMALY":87.0857,"EPHEMERIS_TYPE":0,"CLASSIFICATION_TYPE":"U","NORAD_CAT_ID":57124,"ELEMENT_SET_NO":999,"REV_AT_EPOCH":12508,"BSTAR":4.6625363e-5,"MEAN_MOTION_DOT":4.26e-6,"MEAN_MOTION_DDOT":0},{"OBJECT_NAME":"STARLINK-6100","OBJECT_ID":"2023-090AA","EPOCH":"2025-09-22T19:04:32.415168","MEAN_MOTION":15.02539011,"ECCENTRICITY":0.00011919,"INCLINATION":43.003,"RA_OF_ASC_NODE":94.2648,"ARG_OF_PERICENTER":271.3644,"MEAN_ANOMALY":88.7062,"EPHEMERIS_TYPE":0,"CLASSIFICATION_TYPE":"U","NORAD_CAT_ID":57125,"ELEMENT_SET_NO":999,"REV_AT_EPOCH":12511,"BSTAR":1.3763721e-5,"MEAN_MOTION_DOT":-1.8e-7,"MEAN_MOTION_DDOT":0},{"OBJECT_NAME":"STARLINK-6167","OBJECT_ID":"2023-090AB","EPOCH":"2025-09-22T06:46:57.051264","MEAN_MOTION":15.02534467,"ECCENTRICITY":0.00010389,"INCLINATION":43.0052,"RA_OF_ASC_NODE":109.461,"ARG_OF_PERICENTER":279.2296,"MEAN_ANOMALY":80.8429,"EPHEMERIS_TYPE":0,"CLASSIFICATION_TYPE":"U","NORAD_CAT_ID":57126,"ELEMENT_SET_NO":999,"REV_AT_EPOCH":12508,"BSTAR":4.289436e-5,"MEAN_MOTION_DOT":3.76e-6,"MEAN_MOTION_DDOT":0},{"OBJECT_NAME":"STARLINK-6165","OBJECT_ID":"2023-090AC","EPOCH":"2025-09-22T06:32:34.214208","MEAN_MOTION":15.02537423,"ECCENTRICITY":0.00013959,"INCLINATION":43.0026,"RA_OF_ASC_NODE":109.3828,"ARG_OF_PERICENTER":270.3947,"MEAN_ANOMALY":89.6736,"EPHEMERIS_TYPE":0,"CLASSIFICATION_TYPE":"U","NORAD_CAT_ID":57127,"ELEMENT_SET_NO":999,"REV_AT_EPOCH":12489,"BSTAR":-5.4021716e-5,"MEAN_MOTION_DOT":-9.33e-6,"MEAN_MOTION_DDOT":0},{"OBJECT_NAME":"STARLINK-6163","OBJECT_ID":"2023-090AD","EPOCH":"2025-09-22T06:42:09.150912","MEAN_MOTION":15.02537525,"ECCENTRICITY":0.00011191,"INCLINATION":43.0037,"RA_OF_ASC_NODE":109.436,"ARG_OF_PERICENTER":270.2376,"MEAN_ANOMALY":89.8339,"EPHEMERIS_TYPE":0,"CLASSIFICATION_TYPE":"U","NORAD_CAT_ID":57128,"ELEMENT_SET_NO":999,"REV_AT_EPOCH":12489,"BSTAR":3.4815344e-5,"MEAN_MOTION_DOT":2.67e-6,"MEAN_MOTION_DDOT":0},{"OBJECT_NAME":"STARLINK-6170","OBJECT_ID":"2023-090AE","EPOCH":"2025-09-23T04:59:40.882848","MEAN_MOTION":15.02543479,"ECCENTRICITY":0.0001474,"INCLINATION":43.0042,"RA_OF_ASC_NODE":92.208,"ARG_OF_PERICENTER":268.1629,"MEAN_ANOMALY":91.9045,"EPHEMERIS_TYPE":0,"CLASSIFICATION_TYPE":"U","NORAD_CAT_ID":57129,"ELEMENT_SET_NO":999,"REV_AT_EPOCH":12517,"BSTAR":0.00014932247,"MEAN_MOTION_DOT":1.814e-5,"MEAN_MOTION_DDOT":0},{"OBJECT_NAME":"STARLINK-6172","OBJECT_ID":"2023-090AF","EPOCH":"2025-09-22T12:57:04.553856","MEAN_MOTION":15.02533706,"ECCENTRICITY":0.00010792,"INCLINATION":43.0065,"RA_OF_ASC_NODE":107.9486,"ARG_OF_PERICENTER":272.0934,"MEAN_ANOMALY":87.9785,"EPHEMERIS_TYPE":0,"CLASSIFICATION_TYPE":"U","NORAD_CAT_ID":57130,"ELEMENT_SET_NO":999,"REV_AT_EPOCH":12493,"BSTAR":1.5935381e-5,"MEAN_MOTION_DOT":1.2e-7,"MEAN_MOTION_DDOT":0},{"OBJECT_NAME":"STARLINK-6162","OBJECT_ID":"2023-090AG","EPOCH":"2025-09-22T12:56:00.626496","MEAN_MOTION":15.02537326,"ECCENTRICITY":0.00012571,"INCLINATION":43.0048,"RA_OF_ASC_NODE":95.7854,"ARG_OF_PERICENTER":257.0929,"MEAN_ANOMALY":102.9773,"EPHEMERIS_TYPE":0,"CLASSIFICATION_TYPE":"U","NORAD_CAT_ID":57131,"ELEMENT_SET_NO":999,"REV_AT_EPOCH":12507,"BSTAR":3.6399559e-5,"MEAN_MOTION_DOT":2.88e-6,"MEAN_MOTION_DDOT":0},{"OBJECT_NAME":"STARLINK-6128","OBJECT_ID":"2023-090AH","EPOCH":"2025-09-22T20:46:07.583520","MEAN_MOTION":15.02536772,"ECCENTRICITY":0.00010673,"INCLINATION":43.0025,"RA_OF_ASC_NODE":106.0932,"ARG_OF_PERICENTER":267.0734,"MEAN_ANOMALY":92.9986,"EPHEMERIS_TYPE":0,"CLASSIFICATION_TYPE":"U","NORAD_CAT_ID":57132,"ELEMENT_SET_NO":999,"REV_AT_EPOCH":12498,"BSTAR":5.2326027e-5,"MEAN_MOTION_DOT":5.03e-6,"MEAN_MOTION_DDOT":0},{"OBJECT_NAME":"STARLINK-6143","OBJECT_ID":"2023-090AJ","EPOCH":"2025-09-22T18:59:44.720448","MEAN_MOTION":15.02536896,"ECCENTRICITY":0.00013726,"INCLINATION":43.0031,"RA_OF_ASC_NODE":94.2412,"ARG_OF_PERICENTER":267.4616,"MEAN_ANOMALY":92.6069,"EPHEMERIS_TYPE":0,"CLASSIFICATION_TYPE":"U","NORAD_CAT_ID":57133,"ELEMENT_SET_NO":999,"REV_AT_EPOCH":12511,"BSTAR":9.0912387e-5,"MEAN_MOTION_DOT":1.025e-5,"MEAN_MOTION_DDOT":0},{"OBJECT_NAME":"STARLINK-6133","OBJECT_ID":"2023-090AK","EPOCH":"2025-09-23T04:54:53.705664","MEAN_MOTION":15.02535689,"ECCENTRICITY":0.00011008,"INCLINATION":43.0034,"RA_OF_ASC_NODE":92.1802,"ARG_OF_PERICENTER":269.5399,"MEAN_ANOMALY":90.5317,"EPHEMERIS_TYPE":0,"CLASSIFICATION_TYPE":"U","NORAD_CAT_ID":57134,"ELEMENT_SET_NO":999,"REV_AT_EPOCH":12517,"BSTAR":1.2054143e-5,"MEAN_MOTION_DOT":-4.1e-7,"MEAN_MOTION_DDOT":0},{"OBJECT_NAME":"STARLINK-6127","OBJECT_ID":"2023-090AL","EPOCH":"2025-09-22T05:59:31.990848","MEAN_MOTION":15.02538404,"ECCENTRICITY":0.00011881,"INCLINATION":43.0026,"RA_OF_ASC_NODE":97.0552,"ARG_OF_PERICENTER":268.7406,"MEAN_ANOMALY":91.33,"EPHEMERIS_TYPE":0,"CLASSIFICATION_TYPE":"U","NORAD_CAT_ID":57135,"ELEMENT_SET_NO":999,"REV_AT_EPOCH":12503,"BSTAR":5.7244841e-5,"MEAN_MOTION_DOT":5.7e-6,"MEAN_MOTION_DDOT":0},{"OBJECT_NAME":"STARLINK-6112","OBJECT_ID":"2023-090AM","EPOCH":"2025-09-23T04:50:05.815680","MEAN_MOTION":15.02535232,"ECCENTRICITY":0.00012025,"INCLINATION":43.0033,"RA_OF_ASC_NODE":92.1567,"ARG_OF_PERICENTER":273.0956,"MEAN_ANOMALY":86.9749,"EPHEMERIS_TYPE":0,"CLASSIFICATION_TYPE":"U","NORAD_CAT_ID":57136,"ELEMENT_SET_NO":999,"REV_AT_EPOCH":12519,"BSTAR":6.9161908e-5,"MEAN_MOTION_DOT":7.31e-6,"MEAN_MOTION_DDOT":0},{"OBJECT_NAME":"STARLINK-5347","OBJECT_ID":"2023-090AN","EPOCH":"2025-09-22T18:56:34.508256","MEAN_MOTION":15.02525497,"ECCENTRICITY":0.00010373,"INCLINATION":43.0041,"RA_OF_ASC_NODE":94.2211,"ARG_OF_PERICENTER":266.1676,"MEAN_ANOMALY":93.9048,"EPHEMERIS_TYPE":0,"CLASSIFICATION_TYPE":"U","NORAD_CAT_ID":57137,"ELEMENT_SET_NO":999,"REV_AT_EPOCH":12511,"BSTAR":-5.4840477e-5,"MEAN_MOTION_DOT":-9.44e-6,"MEAN_MOTION_DDOT":0},{"OBJECT_NAME":"STARLINK-5336","OBJECT_ID":"2023-090AP","EPOCH":"2025-09-23T04:48:30.225312","MEAN_MOTION":15.02537212,"ECCENTRICITY":0.00011603,"INCLINATION":43.0045,"RA_OF_ASC_NODE":92.1474,"ARG_OF_PERICENTER":260.7785,"MEAN_ANOMALY":99.2926,"EPHEMERIS_TYPE":0,"CLASSIFICATION_TYPE":"U","NORAD_CAT_ID":57138,"ELEMENT_SET_NO":999,"REV_AT_EPOCH":12517,"BSTAR":-3.036533e-6,"MEAN_MOTION_DOT":-2.45e-6,"MEAN_MOTION_DDOT":0}]
